SKYSAT-A                
1 39418U 13066C   26063.73930331  .00005036  00000+0  29304-3 0  9991
2 39418  97.3963 116.4362 0020475 318.7106  41.2576 15.12311207672699
SKYSAT-B                
1 40072U 14037D   26063.81971550  .00002860  00000+0  32049-3 0  9997
2 40072  98.3723  16.9333 0004211 254.2488 105.8262 14.87703036630443
SKYSAT-C1               
1 41601U 16040C   26063.54907443  .00013270  00000+0  40037-3 0  9995
2 41601  96.9701 101.0001 0003928  63.5583 296.6063 15.34386901541812
SKYSAT-C4               
1 41771U 16058B   26063.66916490  .00022127  00000+0  46776-3 0  9994
2 41771  96.9290  90.0006 0000865  91.3597 268.7752 15.45165190529319
SKYSAT-C5               
1 41772U 16058C   26063.54260623  .00013001  00000+0  39509-3 0  9999
2 41772  97.0620 108.8291 0001864  85.2729 274.8727 15.34172728527706
SKYSAT-C2               
1 41773U 16058D   26063.05382248  .00017629  00000+0  45017-3 0  9995
2 41773  97.0280  89.2282 0005284  81.1583 279.0262 15.39520258528863
SKYSAT-C3               
1 41774U 16058E   26063.06410134  .00030426  00000+0  58203-3 0  9994
2 41774  96.9182  98.1747 0001528 100.8480 259.2944 15.48020744529829
SKYSAT-C11              
1 42987U 17068A   26063.81727345  .00035372  00000+0  58724-3 0  9994
2 42987  97.4195 208.6421 0000737  86.1386 273.9951 15.52029456467023
SKYSAT-C10              
1 42988U 17068B   26063.31269518  .00017986  00000+0  57448-3 0  9996
2 42988  97.4329 199.3999 0001143  90.4216 269.7157 15.32525278466280
SKYSAT-C9               
1 42989U 17068C   26063.38073272  .00023900  00000+0  62538-3 0  9993
2 42989  97.4254 199.4601 0009705 150.2472 209.9327 15.38684553466621
SKYSAT-C8               
1 42990U 17068D   26063.82603329  .00007418  00000+0  22360-3 0  9991
2 42990  97.4337 199.3361 0001326  99.1187 261.0206 15.34611478466292
SKYSAT-C7               
1 42991U 17068E   26063.62033796  .00017354  00000+0  51974-3 0  9998
2 42991  97.4359 200.1125 0007410 119.3141 240.8843 15.34558146466329
SKYSAT-C6               
1 42992U 17068F   26063.67480056  .00015584  00000+0  49702-3 0  9998
2 42992  97.4394 200.4668 0003571 123.8734 236.2848 15.32599433466300
SKYSAT-C12              
1 43797U 18099AR  26063.06081354  .00023634  00000+0  49589-3 0  9996
2 43797  96.9377  90.7179 0004934 152.7288 207.4222 15.45361946405607
SKYSAT-C13              
1 43802U 18099AW  26063.39554717  .00116745  00000+0  75729-3 0  9998
2 43802  96.9412 111.0229 0003382 219.4781 140.6239 15.75658283406335
FLOCK 4Q-16             
1 58271U 23174R   26063.18417959  .00036612  00000+0  79005-3 0  9992
2 58271  97.3873 149.2222 0007878 175.6207 184.5111 15.44433782129343
FLOCK 4Q-11             
1 58273U 23174T   26063.19280902  .00037625  00000+0  80166-3 0  9996
2 58273  97.3913 149.7054 0007573 173.3114 186.8237 15.44806147129356
